[{"OBJECT_NAME":"HELIOS 1B","OBJECT_ID":"1999-064A","EPOCH":"2026-03-11T17:33:31.218048","MEAN_MOTION":14.8770867,"ECCENTRICITY":0.000245,"INCLINATION":98.1686,"RA_OF_ASC_NODE":333.0347,"ARG_OF_PERICENTER":72.3561,"MEAN_ANOMALY":287.7921,"EPHEMERIS_TYPE":0,"CLASSIFICATION_TYPE":"U","NORAD_CAT_ID":25977,"ELEMENT_SET_NO":999,"REV_AT_EPOCH":68556,"BSTAR":0.0002625,"MEAN_MOTION_DOT":2.334e-5,"MEAN_MOTION_DDOT":0},{"OBJECT_NAME":"TERRA","OBJECT_ID":"1999-068A","EPOCH":"2026-03-11T20:22:17.954688","MEAN_MOTION":14.61017091,"ECCENTRICITY":0.0002831,"INCLINATION":97.959,"RA_OF_ASC_NODE":124.201,"ARG_OF_PERICENTER":146.4914,"MEAN_ANOMALY":329.8211,"EPHEMERIS_TYPE":0,"CLASSIFICATION_TYPE":"U","NORAD_CAT_ID":25994,"ELEMENT_SET_NO":999,"REV_AT_EPOCH":39539,"BSTAR":0.00010721,"MEAN_MOTION_DOT":4.82e-6,"MEAN_MOTION_DDOT":0},{"OBJECT_NAME":"SL-16 R/B","OBJECT_ID":"2000-006B","EPOCH":"2026-03-11T11:54:27.233856","MEAN_MOTION":14.1582555,"ECCENTRICITY":0.001667,"INCLINATION":71.0007,"RA_OF_ASC_NODE":94.0389,"ARG_OF_PERICENTER":187.5909,"MEAN_ANOMALY":172.4964,"EPHEMERIS_TYPE":0,"CLASSIFICATION_TYPE":"U","NORAD_CAT_ID":26070,"ELEMENT_SET_NO":999,"REV_AT_EPOCH":34881,"BSTAR":-5.2847e-5,"MEAN_MOTION_DOT":-1.52e-6,"MEAN_MOTION_DDOT":0},{"OBJECT_NAME":"TITAN 4B R/B","OBJECT_ID":"2000-047B","EPOCH":"2026-03-11T21:11:35.226240","MEAN_MOTION":15.09586938,"ECCENTRICITY":0.0038654,"INCLINATION":67.9902,"RA_OF_ASC_NODE":34.3425,"ARG_OF_PERICENTER":32.8249,"MEAN_ANOMALY":327.5289,"EPHEMERIS_TYPE":0,"CLASSIFICATION_TYPE":"U","NORAD_CAT_ID":26474,"ELEMENT_SET_NO":999,"REV_AT_EPOCH":39324,"BSTAR":0.00030209,"MEAN_MOTION_DOT":4.816e-5,"MEAN_MOTION_DDOT":0},{"OBJECT_NAME":"ENVISAT","OBJECT_ID":"2002-009A","EPOCH":"2026-03-11T21:47:22.529760","MEAN_MOTION":14.39037835,"ECCENTRICITY":0.0001309,"INCLINATION":98.3731,"RA_OF_ASC_NODE":24.4524,"ARG_OF_PERICENTER":82.6592,"MEAN_ANOMALY":345.4838,"EPHEMERIS_TYPE":0,"CLASSIFICATION_TYPE":"U","NORAD_CAT_ID":27386,"ELEMENT_SET_NO":999,"REV_AT_EPOCH":25949,"BSTAR":6.2897e-5,"MEAN_MOTION_DOT":1.51e-6,"MEAN_MOTION_DDOT":0},{"OBJECT_NAME":"IDEFIX & ARIANE 42P R/B","OBJECT_ID":"2002-021B","EPOCH":"2026-03-11T19:16:38.314272","MEAN_MOTION":14.31027862,"ECCENTRICITY":0.0011697,"INCLINATION":98.5869,"RA_OF_ASC_NODE":9.3842,"ARG_OF_PERICENTER":175.9687,"MEAN_ANOMALY":184.1592,"EPHEMERIS_TYPE":0,"CLASSIFICATION_TYPE":"U","NORAD_CAT_ID":27422,"ELEMENT_SET_NO":999,"REV_AT_EPOCH":24432,"BSTAR":0.0001448,"MEAN_MOTION_DOT":3.38e-6,"MEAN_MOTION_DDOT":0},{"OBJECT_NAME":"AQUA","OBJECT_ID":"2002-022A","EPOCH":"2026-03-11T20:56:46.946112","MEAN_MOTION":14.61982658,"ECCENTRICITY":5.6e-5,"INCLINATION":98.4177,"RA_OF_ASC_NODE":38.2774,"ARG_OF_PERICENTER":88.8295,"MEAN_ANOMALY":322.2995,"EPHEMERIS_TYPE":0,"CLASSIFICATION_TYPE":"U","NORAD_CAT_ID":27424,"ELEMENT_SET_NO":999,"REV_AT_EPOCH":26905,"BSTAR":0.00024842,"MEAN_MOTION_DOT":1.196e-5,"MEAN_MOTION_DDOT":0},{"OBJECT_NAME":"CZ-4B R/B","OBJECT_ID":"2002-024C","EPOCH":"2026-03-11T18:43:16.180032","MEAN_MOTION":14.14547983,"ECCENTRICITY":0.0050384,"INCLINATION":98.8835,"RA_OF_ASC_NODE":124.1762,"ARG_OF_PERICENTER":18.2883,"MEAN_ANOMALY":92.6866,"EPHEMERIS_TYPE":0,"CLASSIFICATION_TYPE":"U","NORAD_CAT_ID":27432,"ELEMENT_SET_NO":999,"REV_AT_EPOCH":22953,"BSTAR":4.7285e-5,"MEAN_MOTION_DOT":4.7e-7,"MEAN_MOTION_DDOT":0},{"OBJECT_NAME":"MIDORI II (ADEOS-II)","OBJECT_ID":"2002-056A","EPOCH":"2026-03-11T20:00:44.022240","MEAN_MOTION":14.2928696,"ECCENTRICITY":0.0001513,"INCLINATION":98.7769,"RA_OF_ASC_NODE":29.3261,"ARG_OF_PERICENTER":40.5495,"MEAN_ANOMALY":319.5799,"EPHEMERIS_TYPE":0,"CLASSIFICATION_TYPE":"U","NORAD_CAT_ID":27597,"ELEMENT_SET_NO":999,"REV_AT_EPOCH":21060,"BSTAR":0.00016095,"MEAN_MOTION_DOT":3.64e-6,"MEAN_MOTION_DDOT":0},{"OBJECT_NAME":"H-2A R/B","OBJECT_ID":"2002-056E","EPOCH":"2026-03-11T20:52:15.156768","MEAN_MOTION":14.33762249,"ECCENTRICITY":0.0070632,"INCLINATION":98.3205,"RA_OF_ASC_NODE":31.1522,"ARG_OF_PERICENTER":154.2148,"MEAN_ANOMALY":261.2108,"EPHEMERIS_TYPE":0,"CLASSIFICATION_TYPE":"U","NORAD_CAT_ID":27601,"ELEMENT_SET_NO":999,"REV_AT_EPOCH":21442,"BSTAR":0.00012062,"MEAN_MOTION_DOT":3.03e-6,"MEAN_MOTION_DDOT":0},{"OBJECT_NAME":"CZ-4B R/B","OBJECT_ID":"2003-049C","EPOCH":"2026-03-11T20:37:11.595936","MEAN_MOTION":14.55022301,"ECCENTRICITY":0.0047333,"INCLINATION":98.6879,"RA_OF_ASC_NODE":65.849,"ARG_OF_PERICENTER":224.116,"MEAN_ANOMALY":135.6256,"EPHEMERIS_TYPE":0,"CLASSIFICATION_TYPE":"U","NORAD_CAT_ID":28059,"ELEMENT_SET_NO":999,"REV_AT_EPOCH":18691,"BSTAR":0.00011009,"MEAN_MOTION_DOT":4.29e-6,"MEAN_MOTION_DDOT":0},{"OBJECT_NAME":"CZ-2C R/B","OBJECT_ID":"2004-012C","EPOCH":"2026-03-11T17:16:17.755680","MEAN_MOTION":15.64774872,"ECCENTRICITY":0.0012932,"INCLINATION":97.7222,"RA_OF_ASC_NODE":136.2046,"ARG_OF_PERICENTER":301.4679,"MEAN_ANOMALY":58.5315,"EPHEMERIS_TYPE":0,"CLASSIFICATION_TYPE":"U","NORAD_CAT_ID":28222,"ELEMENT_SET_NO":999,"REV_AT_EPOCH":20459,"BSTAR":0.00066079,"MEAN_MOTION_DOT":0.00064754,"MEAN_MOTION_DDOT":0},{"OBJECT_NAME":"SL-16 R/B","OBJECT_ID":"2004-021B","EPOCH":"2026-03-11T20:40:10.851744","MEAN_MOTION":14.1459711,"ECCENTRICITY":0.0004176,"INCLINATION":70.9996,"RA_OF_ASC_NODE":227.935,"ARG_OF_PERICENTER":6.1397,"MEAN_ANOMALY":353.9776,"EPHEMERIS_TYPE":0,"CLASSIFICATION_TYPE":"U","NORAD_CAT_ID":28353,"ELEMENT_SET_NO":999,"REV_AT_EPOCH":12314,"BSTAR":-0.0001132,"MEAN_MOTION_DOT":-2.65e-6,"MEAN_MOTION_DDOT":0},{"OBJECT_NAME":"CZ-4B R/B","OBJECT_ID":"2004-035C","EPOCH":"2026-03-11T14:39:22.790880","MEAN_MOTION":15.29101543,"ECCENTRICITY":0.0030743,"INCLINATION":97.3502,"RA_OF_ASC_NODE":104.8303,"ARG_OF_PERICENTER":324.4114,"MEAN_ANOMALY":35.5075,"EPHEMERIS_TYPE":0,"CLASSIFICATION_TYPE":"U","NORAD_CAT_ID":28415,"ELEMENT_SET_NO":999,"REV_AT_EPOCH":18020,"BSTAR":0.00030919,"MEAN_MOTION_DOT":8.783e-5,"MEAN_MOTION_DDOT":0},{"OBJECT_NAME":"CZ-2C R/B","OBJECT_ID":"2004-046B","EPOCH":"2026-03-11T17:30:18.008640","MEAN_MOTION":14.26992768,"ECCENTRICITY":0.0139979,"INCLINATION":98.198,"RA_OF_ASC_NODE":345.5864,"ARG_OF_PERICENTER":148.4396,"MEAN_ANOMALY":212.5277,"EPHEMERIS_TYPE":0,"CLASSIFICATION_TYPE":"U","NORAD_CAT_ID":28480,"ELEMENT_SET_NO":999,"REV_AT_EPOCH":10879,"BSTAR":6.246e-5,"MEAN_MOTION_DOT":1.28e-6,"MEAN_MOTION_DDOT":0},{"OBJECT_NAME":"ARIANE 5 R/B","OBJECT_ID":"2004-049H","EPOCH":"2026-03-11T17:18:20.817792","MEAN_MOTION":14.85270084,"ECCENTRICITY":0.0083807,"INCLINATION":98.263,"RA_OF_ASC_NODE":239.254,"ARG_OF_PERICENTER":345.3168,"MEAN_ANOMALY":14.5613,"EPHEMERIS_TYPE":0,"CLASSIFICATION_TYPE":"U","NORAD_CAT_ID":28499,"ELEMENT_SET_NO":999,"REV_AT_EPOCH":14609,"BSTAR":0.0001092,"MEAN_MOTION_DOT":9.32e-6,"MEAN_MOTION_DDOT":0},{"OBJECT_NAME":"CZ-2D R/B","OBJECT_ID":"2005-024B","EPOCH":"2026-03-11T18:16:50.624256","MEAN_MOTION":15.60354217,"ECCENTRICITY":0.0005547,"INCLINATION":97.3602,"RA_OF_ASC_NODE":85.984,"ARG_OF_PERICENTER":41.1425,"MEAN_ANOMALY":319.025,"EPHEMERIS_TYPE":0,"CLASSIFICATION_TYPE":"U","NORAD_CAT_ID":28738,"ELEMENT_SET_NO":999,"REV_AT_EPOCH":14010,"BSTAR":0.00061032,"MEAN_MOTION_DOT":0.00050111,"MEAN_MOTION_DDOT":0}]
